CCSDS_OMM_VERS = 2.0
CREATION_DATE  = 
ORIGINATOR     = 

OBJECT_NAME    = AQUA
OBJECT_ID      = 2002-022A
CENTER_NAME    = EARTH
REF_FRAME      = TEME
TIME_SYSTEM    = UTC
MEAN_ELEMENT_THEORY = SGP/SGP4

EPOCH          = 2026-03-19T21:01:30.679392
MEAN_MOTION    = 14.61999876
ECCENTRICITY   = .000077
INCLINATION    = 98.4193
RA_OF_ASC_NODE = 46.4278
ARG_OF_PERICENTER = 112.3585
MEAN_ANOMALY   = 276.5542

EPHEMERIS_TYPE = 0
CLASSIFICATION_TYPE = U
NORAD_CAT_ID   = 27424
ELEMENT_SET_NO = 999
REV_AT_EPOCH   = 27022
BSTAR          = .17661E-3
MEAN_MOTION_DOT = .836E-5
MEAN_MOTION_DDOT = 0

CCSDS_OMM_VERS = 2.0
CREATION_DATE  = 
ORIGINATOR     = 

OBJECT_NAME    = CZ-4B R/B
OBJECT_ID      = 2002-024C
CENTER_NAME    = EARTH
REF_FRAME      = TEME
TIME_SYSTEM    = UTC
MEAN_ELEMENT_THEORY = SGP/SGP4

EPOCH          = 2026-03-19T18:32:11.143680
MEAN_MOTION    = 14.14549359
ECCENTRICITY   = .004997
INCLINATION    = 98.8816
RA_OF_ASC_NODE = 132.1272
ARG_OF_PERICENTER = 355.6453
MEAN_ANOMALY   = 112.4368

EPHEMERIS_TYPE = 0
CLASSIFICATION_TYPE = U
NORAD_CAT_ID   = 27432
ELEMENT_SET_NO = 999
REV_AT_EPOCH   = 23066
BSTAR          = .40835E-4
MEAN_MOTION_DOT = .35E-6
MEAN_MOTION_DDOT = 0

CCSDS_OMM_VERS = 2.0
CREATION_DATE  = 
ORIGINATOR     = 

OBJECT_NAME    = MIDORI II (ADEOS-II)
OBJECT_ID      = 2002-056A
CENTER_NAME    = EARTH
REF_FRAME      = TEME
TIME_SYSTEM    = UTC
MEAN_ELEMENT_THEORY = SGP/SGP4

EPOCH          = 2026-03-19T19:32:40.388640
MEAN_MOTION    = 14.29292560
ECCENTRICITY   = .0001173
INCLINATION    = 98.7787
RA_OF_ASC_NODE = 37.3630
ARG_OF_PERICENTER = 29.4876
MEAN_ANOMALY   = 330.6371

EPHEMERIS_TYPE = 0
CLASSIFICATION_TYPE = U
NORAD_CAT_ID   = 27597
ELEMENT_SET_NO = 999
REV_AT_EPOCH   = 21174
BSTAR          = .11934E-3
MEAN_MOTION_DOT = .258E-5
MEAN_MOTION_DDOT = 0

CCSDS_OMM_VERS = 2.0
CREATION_DATE  = 
ORIGINATOR     = 

OBJECT_NAME    = H-2A R/B
OBJECT_ID      = 2002-056E
CENTER_NAME    = EARTH
REF_FRAME      = TEME
TIME_SYSTEM    = UTC
MEAN_ELEMENT_THEORY = SGP/SGP4

EPOCH          = 2026-03-19T19:49:58.855296
MEAN_MOTION    = 14.33767146
ECCENTRICITY   = .0071056
INCLINATION    = 98.3221
RA_OF_ASC_NODE = 38.8071
ARG_OF_PERICENTER = 130.7231
MEAN_ANOMALY   = 290.2212

EPHEMERIS_TYPE = 0
CLASSIFICATION_TYPE = U
NORAD_CAT_ID   = 27601
ELEMENT_SET_NO = 999
REV_AT_EPOCH   = 21556
BSTAR          = .94892E-4
MEAN_MOTION_DOT = .23E-5
MEAN_MOTION_DDOT = 0

CCSDS_OMM_VERS = 2.0
CREATION_DATE  = 
ORIGINATOR     = 

OBJECT_NAME    = CZ-4B R/B
OBJECT_ID      = 2003-049C
CENTER_NAME    = EARTH
REF_FRAME      = TEME
TIME_SYSTEM    = UTC
MEAN_ELEMENT_THEORY = SGP/SGP4

EPOCH          = 2026-03-19T20:04:08.551776
MEAN_MOTION    = 14.55029243
ECCENTRICITY   = .0047738
INCLINATION    = 98.6888
RA_OF_ASC_NODE = 74.1398
ARG_OF_PERICENTER = 199.4655
MEAN_ANOMALY   = 160.4720

EPHEMERIS_TYPE = 0
CLASSIFICATION_TYPE = U
NORAD_CAT_ID   = 28059
ELEMENT_SET_NO = 999
REV_AT_EPOCH   = 18807
BSTAR          = .81553E-4
MEAN_MOTION_DOT = .305E-5
MEAN_MOTION_DDOT = 0

CCSDS_OMM_VERS = 2.0
CREATION_DATE  = 
ORIGINATOR     = 

OBJECT_NAME    = CZ-2C R/B
OBJECT_ID      = 2004-012C
CENTER_NAME    = EARTH
REF_FRAME      = TEME
TIME_SYSTEM    = UTC
MEAN_ELEMENT_THEORY = SGP/SGP4

EPOCH          = 2026-03-19T17:03:36.774720
MEAN_MOTION    = 15.65653715
ECCENTRICITY   = .0012905
INCLINATION    = 97.7202
RA_OF_ASC_NODE = 144.9609
ARG_OF_PERICENTER = 268.3320
MEAN_ANOMALY   = 91.6460

EPHEMERIS_TYPE = 0
CLASSIFICATION_TYPE = U
NORAD_CAT_ID   = 28222
ELEMENT_SET_NO = 999
REV_AT_EPOCH   = 20584
BSTAR          = .41691E-3
MEAN_MOTION_DOT = .42146E-3
MEAN_MOTION_DDOT = 0

CCSDS_OMM_VERS = 2.0
CREATION_DATE  = 
ORIGINATOR     = 

OBJECT_NAME    = SL-16 R/B
OBJECT_ID      = 2004-021B
CENTER_NAME    = EARTH
REF_FRAME      = TEME
TIME_SYSTEM    = UTC
MEAN_ELEMENT_THEORY = SGP/SGP4

EPOCH          = 2026-03-19T18:44:43.229760
MEAN_MOTION    = 14.14593755
ECCENTRICITY   = .0004554
INCLINATION    = 70.9997
RA_OF_ASC_NODE = 211.3144
ARG_OF_PERICENTER = 357.0332
MEAN_ANOMALY   = 3.0762

EPHEMERIS_TYPE = 0
CLASSIFICATION_TYPE = U
NORAD_CAT_ID   = 28353
ELEMENT_SET_NO = 999
REV_AT_EPOCH   = 12426
BSTAR          = -.81509E-4
MEAN_MOTION_DOT = -.204E-5
MEAN_MOTION_DDOT = 0

CCSDS_OMM_VERS = 2.0
CREATION_DATE  = 
ORIGINATOR     = 

OBJECT_NAME    = CZ-4B R/B
OBJECT_ID      = 2004-035C
CENTER_NAME    = EARTH
REF_FRAME      = TEME
TIME_SYSTEM    = UTC
MEAN_ELEMENT_THEORY = SGP/SGP4

EPOCH          = 2026-03-19T15:49:34.038336
MEAN_MOTION    = 15.29227390
ECCENTRICITY   = .0030149
INCLINATION    = 97.3475
RA_OF_ASC_NODE = 112.7825
ARG_OF_PERICENTER = 294.4714
MEAN_ANOMALY   = 65.3382

EPHEMERIS_TYPE = 0
CLASSIFICATION_TYPE = U
NORAD_CAT_ID   = 28415
ELEMENT_SET_NO = 999
REV_AT_EPOCH   = 18143
BSTAR          = .21074E-3
MEAN_MOTION_DOT = .5979E-4
MEAN_MOTION_DDOT = 0

CCSDS_OMM_VERS = 2.0
CREATION_DATE  = 
ORIGINATOR     = 

OBJECT_NAME    = CZ-2C R/B
OBJECT_ID      = 2004-046B
CENTER_NAME    = EARTH
REF_FRAME      = TEME
TIME_SYSTEM    = UTC
MEAN_ELEMENT_THEORY = SGP/SGP4

EPOCH          = 2026-03-19T17:20:57.708960
MEAN_MOTION    = 14.26995367
ECCENTRICITY   = .0140371
INCLINATION    = 98.1981
RA_OF_ASC_NODE = 353.0821
ARG_OF_PERICENTER = 124.9261
MEAN_ANOMALY   = 236.5203

EPHEMERIS_TYPE = 0
CLASSIFICATION_TYPE = U
NORAD_CAT_ID   = 28480
ELEMENT_SET_NO = 999
REV_AT_EPOCH   = 10993
BSTAR          = .53475E-4
MEAN_MOTION_DOT = .104E-5
MEAN_MOTION_DDOT = 0

CCSDS_OMM_VERS = 2.0
CREATION_DATE  = 
ORIGINATOR     = 

OBJECT_NAME    = ARIANE 5 R/B
OBJECT_ID      = 2004-049H
CENTER_NAME    = EARTH
REF_FRAME      = TEME
TIME_SYSTEM    = UTC
MEAN_ELEMENT_THEORY = SGP/SGP4

EPOCH          = 2026-03-19T04:46:24.295584
MEAN_MOTION    = 14.85282693
ECCENTRICITY   = .00832985
INCLINATION    = 98.2640
RA_OF_ASC_NODE = 247.0128
ARG_OF_PERICENTER = 320.9257
MEAN_ANOMALY   = 38.5958

EPHEMERIS_TYPE = 0
CLASSIFICATION_TYPE = U
NORAD_CAT_ID   = 28499
ELEMENT_SET_NO = 999
REV_AT_EPOCH   = 14720
BSTAR          = .79827817E-4
MEAN_MOTION_DOT = .663E-5
MEAN_MOTION_DDOT = 0

CCSDS_OMM_VERS = 2.0
CREATION_DATE  = 
ORIGINATOR     = 

OBJECT_NAME    = CZ-2D R/B
OBJECT_ID      = 2005-024B
CENTER_NAME    = EARTH
REF_FRAME      = TEME
TIME_SYSTEM    = UTC
MEAN_ELEMENT_THEORY = SGP/SGP4

EPOCH          = 2026-03-18T22:37:37.967520
MEAN_MOTION    = 15.60961320
ECCENTRICITY   = .00042407
INCLINATION    = 97.3581
RA_OF_ASC_NODE = 93.4338
ARG_OF_PERICENTER = 21.1997
MEAN_ANOMALY   = 338.9435

EPHEMERIS_TYPE = 0
CLASSIFICATION_TYPE = U
NORAD_CAT_ID   = 28738
ELEMENT_SET_NO = 999
REV_AT_EPOCH   = 14122
BSTAR          = .41354643E-3
MEAN_MOTION_DOT = .34641E-3
MEAN_MOTION_DDOT = 0

CCSDS_OMM_VERS = 2.0
CREATION_DATE  = 
ORIGINATOR     = 

OBJECT_NAME    = ALOS (DAICHI)
OBJECT_ID      = 2006-002A
CENTER_NAME    = EARTH
REF_FRAME      = TEME
TIME_SYSTEM    = UTC
MEAN_ELEMENT_THEORY = SGP/SGP4

EPOCH          = 2026-03-19T20:24:42.663456
MEAN_MOTION    = 14.69840946
ECCENTRICITY   = .0000714
INCLINATION    = 98.1237
RA_OF_ASC_NODE = 34.7562
ARG_OF_PERICENTER = 82.4376
MEAN_ANOMALY   = 277.6911

EPHEMERIS_TYPE = 0
CLASSIFICATION_TYPE = U
NORAD_CAT_ID   = 28931
ELEMENT_SET_NO = 999
REV_AT_EPOCH   = 7497
BSTAR          = .20643E-3
MEAN_MOTION_DOT = .1184E-4
MEAN_MOTION_DDOT = 0

