AQUA                    
1 27424U 02022A   26078.87604953  .00000836  00000+0  17661-3 0  9990
2 27424  98.4193  46.4278 0000770 112.3585 276.5542 14.61999876270229
CZ-4B R/B               
1 27432U 02024C   26078.77235120  .00000035  00000+0  40835-4 0  9997
2 27432  98.8816 132.1272 0049970 355.6453 112.4368 14.14549359230665
MIDORI II (ADEOS-II)    
1 27597U 02056A   26078.81435635  .00000258  00000+0  11934-3 0  9996
2 27597  98.7787  37.3630 0001173  29.4876 330.6371 14.29292560211746
H-2A R/B                
1 27601U 02056E   26078.82637564  .00000230  00000+0  94892-4 0  9993
2 27601  98.3221  38.8071 0071056 130.7231 290.2212 14.33767146215565
CZ-4B R/B               
1 28059U 03049C   26078.83621009  .00000305  00000+0  81553-4 0  9995
2 28059  98.6888  74.1398 0047738 199.4655 160.4720 14.55029243188072
CZ-2C R/B               
1 28222U 04012C   26078.71084230  .00042146  00000+0  41691-3 0  9991
2 28222  97.7202 144.9609 0012905 268.3320  91.6460 15.65653715205848
SL-16 R/B               
1 28353U 04021B   26078.78105590 -.00000204  00000+0 -81509-4 0  9990
2 28353  70.9997 211.3144 0004554 357.0332   3.0762 14.14593755124268
CZ-4B R/B               
1 28415U 04035C   26078.65942174  .00005979  00000+0  21074-3 0  9999
2 28415  97.3475 112.7825 0030149 294.4714  65.3382 15.29227390181435
CZ-2C R/B               
1 28480U 04046B   26078.72289015  .00000104  00000+0  53475-4 0  9995
2 28480  98.1981 353.0821 0140371 124.9261 236.5203 14.26995367109938
ARIANE 5 R/B            
1 28499U 04049H   26078.19889231  .00000663  00000+0  79828-4 0  9995
2 28499  98.2640 247.0128 0083298 320.9257  38.5958 14.85282693147205
CZ-2D R/B               
1 28738U 05024B   26077.94280055  .00034641  00000+0  41355-3 0  9992
2 28738  97.3581  93.4338 0004240  21.1997 338.9435 15.60961320141220
ALOS (DAICHI)           
1 28931U 06002A   26078.85049379  .00001184  00000+0  20643-3 0  9990
2 28931  98.1237  34.7562 0000714  82.4376 277.6911 14.69840946 74975
